[{"OBJECT_NAME":"STARLINK-31174","OBJECT_ID":"2024-012X","EPOCH":"2026-03-09T07:36:39.600000","MEAN_MOTION":15.27564523,"ECCENTRICITY":5.759e-5,"INCLINATION":42.996,"RA_OF_ASC_NODE":166.9497,"ARG_OF_PERICENTER":271.4466,"MEAN_ANOMALY":88.6319,"EPHEMERIS_TYPE":0,"CLASSIFICATION_TYPE":"U","NORAD_CAT_ID":58808,"ELEMENT_SET_NO":999,"REV_AT_EPOCH":12118,"BSTAR":-3.23741e-6,"MEAN_MOTION_DOT":-3.51e-6,"MEAN_MOTION_DDOT":0},{"OBJECT_NAME":"TRANSPORTER-12 OBJECT AZ","OBJECT_ID":"2025-009AZ","EPOCH":"2026-03-09T17:02:46.667040","MEAN_MOTION":15.30349724,"ECCENTRICITY":9.87e-5,"INCLINATION":97.3981,"RA_OF_ASC_NODE":151.9913,"ARG_OF_PERICENTER":45.3581,"MEAN_ANOMALY":314.774,"EPHEMERIS_TYPE":0,"CLASSIFICATION_TYPE":"U","NORAD_CAT_ID":62656,"ELEMENT_SET_NO":999,"REV_AT_EPOCH":6379,"BSTAR":0.00054902545,"MEAN_MOTION_DOT":0.00016057,"MEAN_MOTION_DDOT":0}]
