STARLINK-31174          
1 58808U 24012X   26068.31712500 -.00000351  00000+0 -32374-5 0  9993
2 58808  42.9960 166.9497 0000575 271.4466  88.6319 15.27564523121188
TRANSPORTER-12 OBJECT AZ
1 62656U 25009AZ  26068.71026235  .00016057  00000+0  54903-3 0  9991
2 62656  97.3981 151.9913 0000987  45.3581 314.7740 15.30349724 63792
